CCSDS_OMM_VERS = 2.0
CREATION_DATE  = 
ORIGINATOR     = 

OBJECT_NAME    = CONNECTA IOT-13
OBJECT_ID      = 2026-004AP
CENTER_NAME    = EARTH
REF_FRAME      = TEME
TIME_SYSTEM    = UTC
MEAN_ELEMENT_THEORY = SGP/SGP4

EPOCH          = 2026-01-30T06:23:50.187840
MEAN_MOTION    = 15.18333905
ECCENTRICITY   = .00109295
INCLINATION    = 97.4541
RA_OF_ASC_NODE = 31.3656
ARG_OF_PERICENTER = 104.0138
MEAN_ANOMALY   = 256.2311

EPHEMERIS_TYPE = 0
CLASSIFICATION_TYPE = U
NORAD_CAT_ID   = 67400
ELEMENT_SET_NO = 999
REV_AT_EPOCH   = 283
BSTAR          = .71581128E-3
MEAN_MOTION_DOT = .14666E-3
MEAN_MOTION_DDOT = 0

CCSDS_OMM_VERS = 2.0
CREATION_DATE  = 
ORIGINATOR     = 

OBJECT_NAME    = CONNECTA IOT-14
OBJECT_ID      = 2026-004AQ
CENTER_NAME    = EARTH
REF_FRAME      = TEME
TIME_SYSTEM    = UTC
MEAN_ELEMENT_THEORY = SGP/SGP4

EPOCH          = 2026-01-29T22:27:30.472704
MEAN_MOTION    = 15.18435762
ECCENTRICITY   = .0011597
INCLINATION    = 97.4483
RA_OF_ASC_NODE = 31.0288
ARG_OF_PERICENTER = 100.3513
MEAN_ANOMALY   = 259.9029

EPHEMERIS_TYPE = 0
CLASSIFICATION_TYPE = U
NORAD_CAT_ID   = 67401
ELEMENT_SET_NO = 999
REV_AT_EPOCH   = 278
BSTAR          = .63739034E-3
MEAN_MOTION_DOT = .1309E-3
MEAN_MOTION_DDOT = 0

CCSDS_OMM_VERS = 2.0
CREATION_DATE  = 
ORIGINATOR     = 

OBJECT_NAME    = CONNECTA IOT-15
OBJECT_ID      = 2026-004AR
CENTER_NAME    = EARTH
REF_FRAME      = TEME
TIME_SYSTEM    = UTC
MEAN_ELEMENT_THEORY = SGP/SGP4

EPOCH          = 2026-01-30T05:14:50.648928
MEAN_MOTION    = 15.16849367
ECCENTRICITY   = .00048221
INCLINATION    = 97.4541
RA_OF_ASC_NODE = 31.2785
ARG_OF_PERICENTER = 85.8034
MEAN_ANOMALY   = 274.3750

EPHEMERIS_TYPE = 0
CLASSIFICATION_TYPE = U
NORAD_CAT_ID   = 67402
ELEMENT_SET_NO = 999
REV_AT_EPOCH   = 281
BSTAR          = .44068574E-3
MEAN_MOTION_DOT = .861E-4
MEAN_MOTION_DDOT = 0

CCSDS_OMM_VERS = 2.0
CREATION_DATE  = 
ORIGINATOR     = 

OBJECT_NAME    = SHIJIAN-29B (SJ-29B)
OBJECT_ID      = 2025-315C
CENTER_NAME    = EARTH
REF_FRAME      = TEME
TIME_SYSTEM    = UTC
MEAN_ELEMENT_THEORY = SGP/SGP4

EPOCH          = 2026-01-29T19:04:30.373536
MEAN_MOTION    = 1.00270996
ECCENTRICITY   = .0001455
INCLINATION    = 3.0468
RA_OF_ASC_NODE = 98.7447
ARG_OF_PERICENTER = 308.9216
MEAN_ANOMALY   = 80.5945

EPHEMERIS_TYPE = 0
CLASSIFICATION_TYPE = U
NORAD_CAT_ID   = 67403
ELEMENT_SET_NO = 999
REV_AT_EPOCH   = 30
BSTAR          = 0
MEAN_MOTION_DOT = -.71E-6
MEAN_MOTION_DDOT = 0

CCSDS_OMM_VERS = 2.0
CREATION_DATE  = 
ORIGINATOR     = 

OBJECT_NAME    = STARLINK-36484
OBJECT_ID      = 2026-005A
CENTER_NAME    = EARTH
REF_FRAME      = TEME
TIME_SYSTEM    = UTC
MEAN_ELEMENT_THEORY = SGP/SGP4

EPOCH          = 2026-01-30T06:00:02.000160
MEAN_MOTION    = 15.60964916
ECCENTRICITY   = .00010617
INCLINATION    = 43.0005
RA_OF_ASC_NODE = 99.2066
ARG_OF_PERICENTER = 263.2469
MEAN_ANOMALY   = 326.1870

EPHEMERIS_TYPE = 0
CLASSIFICATION_TYPE = U
NORAD_CAT_ID   = 67404
ELEMENT_SET_NO = 999
REV_AT_EPOCH   = 395
BSTAR          = -.26687516E-1
MEAN_MOTION_DOT = -.201758E-1
MEAN_MOTION_DDOT = 0

CCSDS_OMM_VERS = 2.0
CREATION_DATE  = 
ORIGINATOR     = 

OBJECT_NAME    = STARLINK-36452
OBJECT_ID      = 2026-005B
CENTER_NAME    = EARTH
REF_FRAME      = TEME
TIME_SYSTEM    = UTC
MEAN_ELEMENT_THEORY = SGP/SGP4

EPOCH          = 2026-01-30T06:00:02.000160
MEAN_MOTION    = 15.60963791
ECCENTRICITY   = .00011196
INCLINATION    = 43.0006
RA_OF_ASC_NODE = 99.2020
ARG_OF_PERICENTER = 266.9178
MEAN_ANOMALY   = 324.4333

EPHEMERIS_TYPE = 0
CLASSIFICATION_TYPE = U
NORAD_CAT_ID   = 67405
ELEMENT_SET_NO = 999
REV_AT_EPOCH   = 395
BSTAR          = -.26671707E-1
MEAN_MOTION_DOT = -.2016499E-1
MEAN_MOTION_DDOT = 0

CCSDS_OMM_VERS = 2.0
CREATION_DATE  = 
ORIGINATOR     = 

OBJECT_NAME    = STARLINK-36409
OBJECT_ID      = 2026-005C
CENTER_NAME    = EARTH
REF_FRAME      = TEME
TIME_SYSTEM    = UTC
MEAN_ELEMENT_THEORY = SGP/SGP4

EPOCH          = 2026-01-30T06:00:02.000160
MEAN_MOTION    = 15.60964246
ECCENTRICITY   = .00009488
INCLINATION    = 43.0007
RA_OF_ASC_NODE = 99.1969
ARG_OF_PERICENTER = 274.8734
MEAN_ANOMALY   = 318.3924

EPHEMERIS_TYPE = 0
CLASSIFICATION_TYPE = U
NORAD_CAT_ID   = 67406
ELEMENT_SET_NO = 999
REV_AT_EPOCH   = 400
BSTAR          = -.26623666E-1
MEAN_MOTION_DOT = -.2013229E-1
MEAN_MOTION_DDOT = 0

CCSDS_OMM_VERS = 2.0
CREATION_DATE  = 
ORIGINATOR     = 

OBJECT_NAME    = STARLINK-36510
OBJECT_ID      = 2026-005D
CENTER_NAME    = EARTH
REF_FRAME      = TEME
TIME_SYSTEM    = UTC
MEAN_ELEMENT_THEORY = SGP/SGP4

EPOCH          = 2026-01-30T06:00:02.000160
MEAN_MOTION    = 15.60962645
ECCENTRICITY   = .0000997
INCLINATION    = 43.0007
RA_OF_ASC_NODE = 99.1922
ARG_OF_PERICENTER = 262.0391
MEAN_ANOMALY   = 333.1488

EPHEMERIS_TYPE = 0
CLASSIFICATION_TYPE = U
NORAD_CAT_ID   = 67407
ELEMENT_SET_NO = 999
REV_AT_EPOCH   = 400
BSTAR          = -.26666662E-1
MEAN_MOTION_DOT = -.2015998E-1
MEAN_MOTION_DDOT = 0

CCSDS_OMM_VERS = 2.0
CREATION_DATE  = 
ORIGINATOR     = 

OBJECT_NAME    = STARLINK-36509
OBJECT_ID      = 2026-005E
CENTER_NAME    = EARTH
REF_FRAME      = TEME
TIME_SYSTEM    = UTC
MEAN_ELEMENT_THEORY = SGP/SGP4

EPOCH          = 2026-01-30T06:00:02.000160
MEAN_MOTION    = 15.60964175
ECCENTRICITY   = .00011158
INCLINATION    = 43.0006
RA_OF_ASC_NODE = 99.1865
ARG_OF_PERICENTER = 260.9583
MEAN_ANOMALY   = 336.1453

EPHEMERIS_TYPE = 0
CLASSIFICATION_TYPE = U
NORAD_CAT_ID   = 67408
ELEMENT_SET_NO = 999
REV_AT_EPOCH   = 400
BSTAR          = -.26674271E-1
MEAN_MOTION_DOT = -.2016692E-1
MEAN_MOTION_DDOT = 0

CCSDS_OMM_VERS = 2.0
CREATION_DATE  = 
ORIGINATOR     = 

OBJECT_NAME    = STARLINK-36507
OBJECT_ID      = 2026-005F
CENTER_NAME    = EARTH
REF_FRAME      = TEME
TIME_SYSTEM    = UTC
MEAN_ELEMENT_THEORY = SGP/SGP4

EPOCH          = 2026-01-30T06:00:02.000160
MEAN_MOTION    = 15.60964663
ECCENTRICITY   = .00010633
INCLINATION    = 43.0004
RA_OF_ASC_NODE = 99.1822
ARG_OF_PERICENTER = 261.0130
MEAN_ANOMALY   = 338.0075

EPHEMERIS_TYPE = 0
CLASSIFICATION_TYPE = U
NORAD_CAT_ID   = 67409
ELEMENT_SET_NO = 999
REV_AT_EPOCH   = 400
BSTAR          = -.26683116E-1
MEAN_MOTION_DOT = -.2017273E-1
MEAN_MOTION_DDOT = 0

CCSDS_OMM_VERS = 2.0
CREATION_DATE  = 
ORIGINATOR     = 

OBJECT_NAME    = STARLINK-36508
OBJECT_ID      = 2026-005G
CENTER_NAME    = EARTH
REF_FRAME      = TEME
TIME_SYSTEM    = UTC
MEAN_ELEMENT_THEORY = SGP/SGP4

EPOCH          = 2026-01-30T06:00:02.000160
MEAN_MOTION    = 15.60967003
ECCENTRICITY   = .00010832
INCLINATION    = 43.0006
RA_OF_ASC_NODE = 99.1775
ARG_OF_PERICENTER = 259.9713
MEAN_ANOMALY   = 340.9640

EPHEMERIS_TYPE = 0
CLASSIFICATION_TYPE = U
NORAD_CAT_ID   = 67410
ELEMENT_SET_NO = 999
REV_AT_EPOCH   = 400
BSTAR          = -.26699904E-1
MEAN_MOTION_DOT = -.2018558E-1
MEAN_MOTION_DDOT = 0

CCSDS_OMM_VERS = 2.0
CREATION_DATE  = 
ORIGINATOR     = 

OBJECT_NAME    = STARLINK-36503
OBJECT_ID      = 2026-005H
CENTER_NAME    = EARTH
REF_FRAME      = TEME
TIME_SYSTEM    = UTC
MEAN_ELEMENT_THEORY = SGP/SGP4

EPOCH          = 2026-01-30T06:00:02.000160
MEAN_MOTION    = 15.60962335
ECCENTRICITY   = .00011326
INCLINATION    = 43.0007
RA_OF_ASC_NODE = 99.1718
ARG_OF_PERICENTER = 266.3705
MEAN_ANOMALY   = 336.4825

EPHEMERIS_TYPE = 0
CLASSIFICATION_TYPE = U
NORAD_CAT_ID   = 67411
ELEMENT_SET_NO = 999
REV_AT_EPOCH   = 374
BSTAR          = -.26616127E-1
MEAN_MOTION_DOT = -.2012731E-1
MEAN_MOTION_DDOT = 0

