CONNECTA IOT-13         
1 67400U 26004AP  26030.26655310  .00014666  00000+0  71581-3 0  9995
2 67400  97.4541  31.3656 0010929 104.0138 256.2311 15.18333905  2832
CONNECTA IOT-14         
1 67401U 26004AQ  26029.93576936  .00013090  00000+0  63739-3 0  9990
2 67401  97.4483  31.0288 0011597 100.3513 259.9029 15.18435762  2788
CONNECTA IOT-15         
1 67402U 26004AR  26030.21864177  .00008610  00000+0  44069-3 0  9998
2 67402  97.4541  31.2785 0004822  85.8034 274.3750 15.16849367  2810
SHIJIAN-29B (SJ-29B)    
1 67403U 25315C   26029.79479599 -.00000071  00000+0  00000+0 0  9991
2 67403   3.0468  98.7447 0001455 308.9216  80.5945  1.00270996   304
STARLINK-36484          
1 67404U 26005A   26030.25002315 -.02017580  00000+0 -26688-1 0  9998
2 67404  43.0005  99.2066 0001061 263.2469 326.1870 15.60964916  3958
STARLINK-36452          
1 67405U 26005B   26030.25002315 -.02016499  00000+0 -26672-1 0  9990
2 67405  43.0006  99.2020 0001119 266.9178 324.4333 15.60963791  3956
STARLINK-36409          
1 67406U 26005C   26030.25002315 -.02013229  00000+0 -26624-1 0  9996
2 67406  43.0007  99.1969 0000948 274.8734 318.3924 15.60964246  4005
STARLINK-36510          
1 67407U 26005D   26030.25002315 -.02015998  00000+0 -26667-1 0  9999
2 67407  43.0007  99.1922 0000997 262.0391 333.1488 15.60962645  4008
STARLINK-36509          
1 67408U 26005E   26030.25002315 -.02016692  00000+0 -26674-1 0  9990
2 67408  43.0006  99.1865 0001115 260.9583 336.1453 15.60964175  4002
STARLINK-36507          
1 67409U 26005F   26030.25002315 -.02017273  00000+0 -26683-1 0  9997
2 67409  43.0004  99.1822 0001063 261.0130 338.0075 15.60964663  4009
STARLINK-36508          
1 67410U 26005G   26030.25002315 -.02018558  00000+0 -26700-1 0  9996
2 67410  43.0006  99.1775 0001083 259.9713 340.9640 15.60967003  4006
STARLINK-36503          
1 67411U 26005H   26030.25002315 -.02012731  00000+0 -26616-1 0  9990
2 67411  43.0007  99.1718 0001132 266.3705 336.4825 15.60962335  3741
